{
    "links": {
        "self": "http://www.neowsapp.com/rest/v1/neo/3843098?api_key=iIulBulltgU6a56xZRHN4H3l9WmuAYTsLGpBGhQ2"
    },
    "id": "3843098",
    "neo_reference_id": "3843098",
    "name": "(2019 MT3)",
    "designation": "2019 MT3",
    "nasa_jpl_url": "http://ssd.jpl.nasa.gov/sbdb.cgi?sstr=3843098",
    "absolute_magnitude_h": 22.8,
    "estimated_diameter": {
        "kilometers": {
            "estimated_diameter_min": 0.0732073989,
            "estimated_diameter_max": 0.1636967205
        },
        "meters": {
            "estimated_diameter_min": 73.2073989347,
            "estimated_diameter_max": 163.696720474
        },
        "miles": {
            "estimated_diameter_min": 0.0454889547,
            "estimated_diameter_max": 0.1017163949
        },
        "feet": {
            "estimated_diameter_min": 240.181762721,
            "estimated_diameter_max": 537.0627483999
        }
    },
    "is_potentially_hazardous_asteroid": false,
    "close_approach_data": [
        {
            "close_approach_date": "1941-05-21",
            "close_approach_date_full": "1941-May-21 00:09",
            "epoch_date_close_approach": -903052260000,
            "relative_velocity": {
                "kilometers_per_second": "8.6586637449",
                "kilometers_per_hour": "31171.189481702",
                "miles_per_hour": "19368.5649310054"
            },
            "miss_distance": {
                "astronomical": "0.1653877473",
                "lunar": "64.3358336997",
                "kilometers": "24741654.720178251",
                "miles": "15373751.3527958238"
            },
            "orbiting_body": "Earth"
        },
        {
            "close_approach_date": "2019-05-23",
            "close_approach_date_full": "2019-May-23 14:39",
            "epoch_date_close_approach": 1558622340000,
            "relative_velocity": {
                "kilometers_per_second": "10.0166311782",
                "kilometers_per_hour": "36059.8722414703",
                "miles_per_hour": "22406.2022824847"
            },
            "miss_distance": {
                "astronomical": "0.1599444796",
                "lunar": "62.2184025644",
                "kilometers": "23927353.466418452",
                "miles": "14867768.0164685576"
            },
            "orbiting_body": "Earth"
        },
        {
            "close_approach_date": "2111-01-16",
            "close_approach_date_full": "2111-Jan-16 05:03",
            "epoch_date_close_approach": 4450827780000,
            "relative_velocity": {
                "kilometers_per_second": "8.7025953396",
                "kilometers_per_hour": "31329.3432226753",
                "miles_per_hour": "19466.8355152229"
            },
            "miss_distance": {
                "astronomical": "0.1060269732",
                "lunar": "41.2444925748",
                "kilometers": "15861409.353267084",
                "miles": "9855822.7515463992"
            },
            "orbiting_body": "Earth"
        },
        {
            "close_approach_date": "2111-06-29",
            "close_approach_date_full": "2111-Jun-29 08:12",
            "epoch_date_close_approach": 4465008720000,
            "relative_velocity": {
                "kilometers_per_second": "8.4065737065",
                "kilometers_per_hour": "30263.665343316",
                "miles_per_hour": "18804.6647240177"
            },
            "miss_distance": {
                "astronomical": "0.4048512884",
                "lunar": "157.4871511876",
                "kilometers": "60564890.411395708",
                "miles": "37633277.8233604504"
            },
            "orbiting_body": "Earth"
        }
    ],
    "orbital_data": {
        "orbit_id": "2",
        "orbit_determination_date": "2019-11-01 08:11:45",
        "first_observation_date": "2019-06-28",
        "last_observation_date": "2019-07-03",
        "data_arc_in_days": 5,
        "observations_used": 14,
        "orbit_uncertainty": "8",
        "minimum_orbit_intersection": ".0422704",
        "jupiter_tisserand_invariant": "5.080",
        "epoch_osculation": "2458664.5",
        "eccentricity": ".3274093059450831",
        "semi_major_axis": "1.24705747685004",
        "inclination": "11.29105425675125",
        "ascending_node_longitude": "108.3149593691421",
        "orbital_period": "508.6606392411884",
        "perihelion_distance": ".8387592538809421",
        "perihelion_argument": "50.39394325708907",
        "aphelion_distance": "1.655355699819139",
        "perihelion_time": "2458561.229048710713",
        "mean_anomaly": "73.08908847282575",
        "mean_motion": ".7077410206872742",
        "equinox": "J2000",
        "orbit_class": {
            "orbit_class_type": "APO",
            "orbit_class_description": "Near-Earth asteroid orbits which cross the Earth’s orbit similar to that of 1862 Apollo",
            "orbit_class_range": "a (semi-major axis) > 1.0 AU; q (perihelion) < 1.017 AU"
        }
    },
    "is_sentry_object": false
}